[{"OBJECT_NAME":"STARLINK-36693","OBJECT_ID":"2026-026X","EPOCH":"2026-03-09T22:00:01.999584","MEAN_MOTION":15.49113269,"ECCENTRICITY":7.243e-5,"INCLINATION":97.2856,"RA_OF_ASC_NODE":123.4955,"ARG_OF_PERICENTER":94.5259,"MEAN_ANOMALY":100.0824,"EPHEMERIS_TYPE":0,"CLASSIFICATION_TYPE":"U","NORAD_CAT_ID":67742,"ELEMENT_SET_NO":999,"REV_AT_EPOCH":548,"BSTAR":0.0017766358,"MEAN_MOTION_DOT":0.00097481,"MEAN_MOTION_DDOT":0},{"OBJECT_NAME":"ELECTRON KICK STAGE R\/B","OBJECT_ID":"2024-022C","EPOCH":"2026-03-09T13:05:49.259328","MEAN_MOTION":15.49181976,"ECCENTRICITY":0.00079262,"INCLINATION":97.4177,"RA_OF_ASC_NODE":282.5126,"ARG_OF_PERICENTER":91.5934,"MEAN_ANOMALY":268.6225,"EPHEMERIS_TYPE":0,"CLASSIFICATION_TYPE":"U","NORAD_CAT_ID":58901,"ELEMENT_SET_NO":999,"REV_AT_EPOCH":11729,"BSTAR":0.0006925927,"MEAN_MOTION_DOT":0.00037792,"MEAN_MOTION_DDOT":0}]
